name,phone,address,district,category
কোহিনুর মোটরস (হওযু অ্যান্ড রোডমাস্টার),,ডেলিভারি  যখন ম্যাপ সরবে তখন ফলাফলগুলি আপডেট করুন  পৃষ্ঠার সবচেয়ে উপরে ফিরে যান  সাইড প্যানেল আড়াল করুন,Dhaka,motorcycle
কোহিনুর মোটরস (হওযু অ্যান্ড রোডমাস্টার),,ডেলিভারি,Dhaka,motorcycle
সিটি হোন্ডা,,ডেলিভারি,Dhaka,motorcycle
সাওয়ারী বাইক এবং গিয়ার,,ডেলিভারি,Dhaka,motorcycle
"ইয়ামাহা শোরুম - ক্রিসেন্ট এন্টারপ্রাইজ, এসিআই মটরস লিমিটেড",,ডেলিভারি,Dhaka,motorcycle
ইয়ামাহা বাইক শপ,,ডেলিভারি,Dhaka,motorcycle
জিনান মোটরস,,ডেলিভারি,Dhaka,motorcycle
"নিলয় হিরো, তেজগাঁও",,ডেলিভারি  যখন ম্যাপ সরবে তখন ফলাফলগুলি আপডেট করুন  পৃষ্ঠার সবচেয়ে উপরে ফিরে যান  সাইড প্যানেল আড়াল করুন,Dhaka,motorcycle showroom
"নিলয় হিরো, তেজগাঁও",,ডেলিভারি,Dhaka,motorcycle showroom
সুজুকি উইংস বিডি লিমিটেড,,ডেলিভারি,Dhaka,motorcycle showroom
নিশো মোটরস - মোহাম্মদপুর,,ডেলিভারি,Dhaka,motorcycle showroom
"উত্তরা মটরস লিমিটেড, বাজাজ পয়েন্ট",,ডেলিভারি,Dhaka,motorcycle showroom
বাইক নেশন বিডি,,01745-745728  দিকনির্দেশ  যখন ম্যাপ সরবে তখন ফলাফলগুলি আপডেট করুন  পৃষ্ঠার সবচেয়ে উপরে ফিরে যান  সাইড প্যানেল আড়াল করুন,Dhaka,bike repair
বাইক নেশন বিডি,,01776-285457  ওয়েবসাইট  দিকনির্দেশ    অনসাইট পরিষেবা,Dhaka,bike repair
মটোমেকস বাংলাদেশ - বেস্ট বাইক সার্ভিস সেন্টের ইন ঢাকা,,01989-892323  ওয়েবসাইট  দিকনির্দেশ    অনসাইট পরিষেবা,Dhaka,bike repair
বাইক হ্যাকস বিডি,,01912-474248  দিকনির্দেশ,Dhaka,bike repair
বাইক শপ বিডি,,ডেলিভারি,Dhaka,bike repair
সাইকেল ওয়ার্কস বিডি,,01670-475126  দিকনির্দেশ,Dhaka,bike repair
ইমন পরিসেবা কেন্দ্র,,01711-585951  ওয়েবসাইট  দিকনির্দেশ,Dhaka,bike repair
গিয়ার আপ মোটরবাইক সার্ভিস পয়েন্ট,,"Signal, Near বিজয় সরণী বন্ধ হয়ে গেছে  ⋅ সোম ৮:০০ AM-এ খুলবে  ওয়েবসাইট  দিকনির্দেশ",Dhaka,bike repair
ঢাকা বাইক হসপিটাল,,01745-745728  দিকনির্দেশ,Dhaka,bike repair
গিয়ার আপ মোটরবাইক সার্ভিস পয়েন্ট,,01977-634608  দিকনির্দেশ  যখন ম্যাপ সরবে তখন ফলাফলগুলি আপডেট করুন  পৃষ্ঠার সবচেয়ে উপরে ফিরে যান  সাইড প্যানেল আড়াল করুন,Dhaka,motorcycle service
Fast Gear Motorbike service center | ফাস্ট গিয়ার মটরবাইক সার্ভিস সেন্টার,,01633-742800  দিকনির্দেশ,Dhaka,motorcycle service
রাইডার্স প্ল্যানেট. মোটরসাইকেল সার্ভিসিং সেন্টের,,01712-086160  দিকনির্দেশ,Dhaka,motorcycle service
স্প্যানার,,01970-139186  ওয়েবসাইট  দিকনির্দেশ    অনসাইট পরিষেবা,Dhaka,motorcycle service
"স্পর্ক - মোটরসাইকেল সার্ভিস, স্পরেস & অ্যাকসেসরিজ",,01786-469061  দিকনির্দেশ,Dhaka,motorcycle service
স্কোপ অটোমোবাইলস | মোটরসাইকেল সার্ভিস সেন্টের,,01619-502020  ওয়েবসাইট  দিকনির্দেশ,Dhaka,motorcycle service
ইস্ট এন্ড মোটরস মোটরসাইকেল অ্যাকসেসরিজ অ্যান্ড রিপেয়ার শপ,,01977-634608  দিকনির্দেশ,Dhaka,motorcycle service
মোটরসাইকেল গ্যালারি,,ডেলিভারি  যখন ম্যাপ সরবে তখন ফলাফলগুলি আপডেট করুন  পৃষ্ঠার সবচেয়ে উপরে ফিরে যান  সাইড প্যানেল আড়াল করুন,Chittagong,motorcycle
মোটরসাইকেল গ্যালারি,,ডেলিভারি,Chittagong,motorcycle
হোন্ডা,,01777-741270    ডেলিভারি,Chittagong,motorcycle
জেএমই মোটরস,,ডেলিভারি,Chittagong,motorcycle
হোন্ডা মিউজিয়াম,,ডেলিভারি,Chittagong,motorcycle
ফ্রেন্ডস মোটরস,,ডেলিভারি,Chittagong,motorcycle
বার আওলিয়া মোটরস,,ডেলিভারি,Chittagong,motorcycle
সুজুকি পোর্ট সিটি মোটরস চট্টগ্রাম,,01999-938969    ডেলিভারি  যখন ম্যাপ সরবে তখন ফলাফলগুলি আপডেট করুন  পৃষ্ঠার সবচেয়ে উপরে ফিরে যান  সাইড প্যানেল আড়াল করুন,Chittagong,motorcycle showroom
সুজুকি পোর্ট সিটি মোটরস চট্টগ্রাম,,01333-250800    ডেলিভারি,Chittagong,motorcycle showroom
চিটাগাং বাজাজ,,ডেলিভারি,Chittagong,motorcycle showroom
নীলয় মোটরস লিমিটেড,,ডেলিভারি,Chittagong,motorcycle showroom
সুজুকি চট্টগ্রাম ক্দ মোটরস,,01999-938969    ডেলিভারি,Chittagong,motorcycle showroom
পেডেলওয়ার্কস থে বাইক শপ,,01790-289073  দিকনির্দেশ  যখন ম্যাপ সরবে তখন ফলাফলগুলি আপডেট করুন  পৃষ্ঠার সবচেয়ে উপরে ফিরে যান  সাইড প্যানেল আড়াল করুন,Chittagong,bike repair
পেডেলওয়ার্কস থে বাইক শপ,,01719-292902  দিকনির্দেশ,Chittagong,bike repair
বাইক রিপেয়ারিং জনে,,"Block-D, Near AkbarShah Thana শীঘ্রই বন্ধ হবে  ⋅ ১১:৩০ PM ⋅ সোম ৯:০০ AM-এ খুলবে  দিকনির্দেশ",Chittagong,bike repair
বাদল বাইকডক,,01749-005999  ওয়েবসাইট  দিকনির্দেশ,Chittagong,bike repair
Anas bike wash & service center,,"274 no, Rini dighir wasi side, Jubilee Rd ২৪ ঘণ্টা খোলা  দিকনির্দেশ",Chittagong,bike repair
বাইক জংশন,,ডেলিভারি,Chittagong,bike repair
সাইকেল এক্সেস,,ডেলিভারি,Chittagong,bike repair
থে বাইকার্স গ্যারেজ বিডি,,01856-822888  ওয়েবসাইট  দিকনির্দেশ,Chittagong,bike repair
বাইক & বাইকার্স,,01790-289073  দিকনির্দেশ,Chittagong,bike repair
Bikers Arena,,01866-324557  দিকনির্দেশ  যখন ম্যাপ সরবে তখন ফলাফলগুলি আপডেট করুন  পৃষ্ঠার সবচেয়ে উপরে ফিরে যান  সাইড প্যানেল আড়াল করুন,Chittagong,motorcycle service
Bikers Arena,,01851-843262  ওয়েবসাইট  দিকনির্দেশ,Chittagong,motorcycle service
জিহান বাইক সার্ভিসিং সেন্টার,,01876-611615  দিকনির্দেশ,Chittagong,motorcycle service
নিউ খোকন ডিজেল সার্ভিস,,8RQ7+CVC 01612-666148  দিকনির্দেশ,Chittagong,motorcycle service
দ্যা বাইক ল্যাব,,01830-306060  ওয়েবসাইট  দিকনির্দেশ    অনসাইট পরিষেবা,Chittagong,motorcycle service
মা মোটরস অ্যান্ড সার্ভিস,,01739-840603  ওয়েবসাইট  দিকনির্দেশ,Chittagong,motorcycle service
ইসরাফিল ডেন্টিং হাউস,,"8RP9+C42, ধনিয়ালা পাড়া বাইলেইন ২৪ ঘণ্টা খোলা  দিকনির্দেশ",Chittagong,motorcycle service
Fixing Station(ফিক্সিং স্টেশন),,01826-662710  ওয়েবসাইট  দিকনির্দেশ,Chittagong,motorcycle service
রাহমান বাবু মোটরসাইকেল সার্ভিসিং,,01866-324557  দিকনির্দেশ,Chittagong,motorcycle service
টিভিএস নিউ মোটরসাইকেল মার্ট,,01719-100315    ক্রেতারা এটি দেখেছেন:  motorcycles  যখন ম্যাপ সরবে তখন ফলাফলগুলি আপডেট করুন  পৃষ্ঠার সবচেয়ে উপরে ফিরে যান  সাইড প্যানেল আড়াল করুন,Khulna,motorcycle
টিভিএস নিউ মোটরসাইকেল মার্ট,,ডেলিভারি,Khulna,motorcycle
রিন্স কনসোর্টিয়া,,ডেলিভারি,Khulna,motorcycle
মোটরসাইকেল গার্ডেন,,ডেলিভারি,Khulna,motorcycle
উত্তরা মোর্টর্স লিমিটেড,,ডেলিভারি,Khulna,motorcycle
বাইক হসপিটাল,,01711-278617    অনসাইট পরিষেবা,Khulna,motorcycle
মমো মোটরস,,01719-100315    ক্রেতারা এটি দেখেছেন:  motorcycles,Khulna,motorcycle
সুজুকি কর্ণার,,ডেলিভারি  যখন ম্যাপ সরবে তখন ফলাফলগুলি আপডেট করুন  পৃষ্ঠার সবচেয়ে উপরে ফিরে যান  সাইড প্যানেল আড়াল করুন,Khulna,motorcycle showroom
সুজুকি কর্ণার,,ডেলিভারি,Khulna,motorcycle showroom
মমো মোটরস,,01719-100315    ডেলিভারি,Khulna,motorcycle showroom
Ride Or Repair,,VG5X+63H বন্ধ হয়ে গেছে  ⋅ সোম ৯:০০ AM-এ খুলবে  দিকনির্দেশ  যখন ম্যাপ সরবে তখন ফলাফলগুলি আপডেট করুন  পৃষ্ঠার সবচেয়ে উপরে ফিরে যান  সাইড প্যানেল আড়াল করুন,Khulna,bike repair
Ride Or Repair,,01723-820541  দিকনির্দেশ,Khulna,bike repair
বাইক রিপেয়ার & মডিফিকেশন & ওয়াশ,,01402-558259  দিকনির্দেশ,Khulna,bike repair
বাইক হসপিটাল,,01711-278617  ওয়েবসাইট  দিকনির্দেশ    অনসাইট পরিষেবা,Khulna,bike repair
সাইকেল হাউজ খুলনা,,ডেলিভারি,Khulna,bike repair
রাসেল সাইকেল স্টোর,,01798-151960  দিকনির্দেশ,Khulna,bike repair
Khulna Bycycle Care (খুলনা সাইকেল কেয়ার),,"RH54+36W, West Baniakhamar Rood 01929-000279  ওয়েবসাইট  দিকনির্দেশ",Khulna,bike repair
ইয়ামাহা রিন্স সার্ভিস সেন্টার,,01902-488493  দিকনির্দেশ,Khulna,bike repair
নাফি অটো বাইক সার্ভিসিং সেন্টের,,VG5X+63H বন্ধ হয়ে গেছে  ⋅ সোম ৯:০০ AM-এ খুলবে  দিকনির্দেশ,Khulna,bike repair
আনম মোটরসাইকেল রিপেয়ার,,01779-575215  দিকনির্দেশ  যখন ম্যাপ সরবে তখন ফলাফলগুলি আপডেট করুন  পৃষ্ঠার সবচেয়ে উপরে ফিরে যান  সাইড প্যানেল আড়াল করুন,Khulna,motorcycle service
আনম মোটরসাইকেল রিপেয়ার,,02 Sonadanga Bypass Rd ২৪ ঘণ্টা খোলা  দিকনির্দেশ,Khulna,motorcycle service
রাসেল মটরস্,,01786-384693  দিকনির্দেশ,Khulna,motorcycle service
রজন মোটরসাইকেল সার্ভিস সেন্টার,,"RGPH+837, Jalil - Sarani 01637-733124  দিকনির্দেশ",Khulna,motorcycle service
Habib Motors,,01911-837311  দিকনির্দেশ,Khulna,motorcycle service
সাক্ষ মোটরস (অপোজিট মিনিসও),,01680-114412  দিকনির্দেশ,Khulna,motorcycle service
রায়হান মটরস্ সার্ভিসিং,,01921-728534  দিকনির্দেশ,Khulna,motorcycle service
"আলমিন মটরস্, গোবরচাকা মেইন রোড।",,01779-575215  দিকনির্দেশ,Khulna,motorcycle service
Rajshahi Bike Station,,01911-787166    ডেলিভারি  যখন ম্যাপ সরবে তখন ফলাফলগুলি আপডেট করুন  পৃষ্ঠার সবচেয়ে উপরে ফিরে যান  সাইড প্যানেল আড়াল করুন,Rajshahi,motorcycle
Rajshahi Bike Station,,3WHF+XVG ADARSHA SCHOOL বন্ধ হয়ে গেছে  ⋅ সোম ৯:৪৫ AM-এ খুলবে,Rajshahi,motorcycle
বাজাজ মোটরসাইকেল শোরুম রাজশাহী(এফজে এন্টারপ্রাইজ),,ডেলিভারি,Rajshahi,motorcycle
ইয়ামাহা ফাল্গশিপ সেন্টার(মোটরসাইকেল শোরুম),,ডেলিভারি,Rajshahi,motorcycle
উত্তরা মোটরস লিমিটেড,,01711-881036    ডেলিভারি,Rajshahi,motorcycle
মোটরসাইকেল ভ্যালি,,01711-626539    ডেলিভারি,Rajshahi,motorcycle
কে.আর বাইক সেন্টার,,01911-787166    ডেলিভারি,Rajshahi,motorcycle
উত্তরা মোটরস লিমিটেড,,ডেলিভারি  যখন ম্যাপ সরবে তখন ফলাফলগুলি আপডেট করুন  পৃষ্ঠার সবচেয়ে উপরে ফিরে যান  সাইড প্যানেল আড়াল করুন,Rajshahi,motorcycle showroom
সুজুকি রাজশাহী শোরুম - আবদুল্লাহ মোটরস,,ডেলিভারি,Rajshahi,motorcycle showroom
সুজুকি মোটরসাইকেল শোরুম রাজশাহীস,,ডেলিভারি,Rajshahi,motorcycle showroom
হিরো মোটোকর্প নীলয় মোটরস লি. রাজশাহী- মোটরসাইকেল শোরুম,,ডেলিভারি,Rajshahi,motorcycle showroom
DULAL BIKE SERVICING CENTRE,,"9HH8+V96, Rajshahi City Bypass  দিকনির্দেশ  যখন ম্যাপ সরবে তখন ফলাফলগুলি আপডেট করুন  পৃষ্ঠার সবচেয়ে উপরে ফিরে যান  সাইড প্যানেল আড়াল করুন",Rajshahi,bike repair
DULAL BIKE SERVICING CENTRE,,01721-379004  দিকনির্দেশ,Rajshahi,bike repair
এম এম মোটরস,,01743-408686  দিকনির্দেশ,Rajshahi,bike repair
Visor Bike Accessories,,01540-154808  দিকনির্দেশ,Rajshahi,bike repair
রাকিব বাইক সার্ভিসিং সেন্টার,,01926-246106  দিকনির্দেশ,Rajshahi,bike repair
জুয়েল বাইক সার্ভিসিং,,"9HHH+8HC, Daspukur Eidgah  দিকনির্দেশ",Rajshahi,bike repair
সাজু বাইক সার্ভিসিং,,01612-856710  দিকনির্দেশ,Rajshahi,bike repair
আন্স বাইক পয়েন্ট,,01913-365165  দিকনির্দেশ,Rajshahi,bike repair
রিংকু বাইক সার্ভিসিং,,"9HH8+V96, Rajshahi City Bypass  দিকনির্দেশ",Rajshahi,bike repair
DULAL BIKE SERVICING CENTRE,,1 Masjid Rd  দিকনির্দেশ  যখন ম্যাপ সরবে তখন ফলাফলগুলি আপডেট করুন  পৃষ্ঠার সবচেয়ে উপরে ফিরে যান  সাইড প্যানেল আড়াল করুন,Rajshahi,motorcycle service
তারেক মটরস এন্ড ওয়ার্কসপ,,9HQR+JQR খোলা আছে  ⋅ ১:৩০ AM-এ বন্ধ হবে  দিকনির্দেশ,Rajshahi,motorcycle service
বাইকার্স স্টেশন রাজশাহী,,01713-929218  দিকনির্দেশ,Rajshahi,motorcycle service
আসগর হোন্ডা গ্যারেজ,,01818-015111  দিকনির্দেশ,Rajshahi,motorcycle service
টি এস আর বাইক সার্ভিসিং সেন্টের,,1 Masjid Rd  দিকনির্দেশ,Rajshahi,motorcycle service
ক্লাসিক অটোস সিলেট | অফিসিয়াল ডিলের ওফ সুজুকি মোটরবাইকস,,ডেলিভারি  যখন ম্যাপ সরবে তখন ফলাফলগুলি আপডেট করুন  পৃষ্ঠার সবচেয়ে উপরে ফিরে যান  সাইড প্যানেল আড়াল করুন,Sylhet,motorcycle
ক্লাসিক অটোস সিলেট | অফিসিয়াল ডিলের ওফ সুজুকি মোটরবাইকস,,ডেলিভারি,Sylhet,motorcycle
ফিরোজ মোটরস,,01815-288888    ডেলিভারি,Sylhet,motorcycle
ফিরোজ অটোস,,ডেলিভারি,Sylhet,motorcycle
গোল্ডেন মোটোর্স্,,ডেলিভারি,Sylhet,motorcycle
ফয়ছল মোটরসাইকেল ওয়ার্কশপ,,01722-338912,Sylhet,motorcycle
"উত্তরা মোটরস, সিলেট",,ডেলিভারি,Sylhet,motorcycle
ফিরোজ মোটরস,,ডেলিভারি  যখন ম্যাপ সরবে তখন ফলাফলগুলি আপডেট করুন  পৃষ্ঠার সবচেয়ে উপরে ফিরে যান  সাইড প্যানেল আড়াল করুন,Sylhet,motorcycle showroom
হেরো মোটোকর্প নীলয় মোটরস এলটিডি - মোটরসাইকেল শোরুম,,ডেলিভারি,Sylhet,motorcycle showroom
বাইক ইয়ার্ড,,01798-905407  দিকনির্দেশ  যখন ম্যাপ সরবে তখন ফলাফলগুলি আপডেট করুন  পৃষ্ঠার সবচেয়ে উপরে ফিরে যান  সাইড প্যানেল আড়াল করুন,Sylhet,bike repair
বাইক ইয়ার্ড,,01719-120681  ওয়েবসাইট  দিকনির্দেশ,Sylhet,bike repair
বাইক সার্ভিস পয়েন্ট,,01779-082701  দিকনির্দেশ,Sylhet,bike repair
ফয়ছল মোটরসাইকেল ওয়ার্কশপ,,01722-338912  দিকনির্দেশ,Sylhet,bike repair
বাইক সলিউশন সিলেট,,01611-067178  দিকনির্দেশ,Sylhet,bike repair
Rinkku cycle service centre,,WV2H+QQM  দিকনির্দেশ,Sylhet,bike repair
অ্যাক্টিভ সাইকেল,,ডেলিভারি,Sylhet,bike repair
সুরমা অটোস্ এন্ড মোটরবাইক ডেকোরেশন,,01742-685455  দিকনির্দেশ,Sylhet,bike repair
ঢাকা সি সিলেট,,01798-905407  দিকনির্দেশ,Sylhet,bike repair
ফয়ছল মোটরসাইকেল ওয়ার্কশপ,,01987-288260  দিকনির্দেশ  যখন ম্যাপ সরবে তখন ফলাফলগুলি আপডেট করুন  পৃষ্ঠার সবচেয়ে উপরে ফিরে যান  সাইড প্যানেল আড়াল করুন,Sylhet,motorcycle service
প্রিন্স মোটরস,,01722-291755  দিকনির্দেশ,Sylhet,motorcycle service
Shahed Motors,,01712-524157  দিকনির্দেশ,Sylhet,motorcycle service
হেরো মোটোকর্প পপুলার অটো ওয়ার্কস - মোটরসাইকেল সার্ভিস সেন্টের,,01675-870283  ওয়েবসাইট  দিকনির্দেশ    অনসাইট পরিষেবা,Sylhet,motorcycle service
বিসমিল্লাহ হোন্ডা সার্ভিসিং সেন্টার,,01771-851724  দিকনির্দেশ,Sylhet,motorcycle service
সুমাইয়া মোটরসাইকেল ইঞ্জিনিয়ারিং ওয়ার্কসপ,,01987-288260  দিকনির্দেশ,Sylhet,motorcycle service
SDL Motors,,01318-351261  যখন ম্যাপ সরবে তখন ফলাফলগুলি আপডেট করুন  পৃষ্ঠার সবচেয়ে উপরে ফিরে যান  সাইড প্যানেল আড়াল করুন,Barisal,motorcycle
SDL Motors,,01789-864985    ক্রেতারা এটি দেখেছেন:  motorcycles,Barisal,motorcycle
হোন্ডা মটরস,,01925-511837    ডেলিভারি,Barisal,motorcycle
Gear Up Barishal,,01776-036859,Barisal,motorcycle
এম/এস রাতুল অটো,,ডেলিভারি,Barisal,motorcycle
রানার মোটরসাইকেলস (বরিশাল শো-রুম ),,ডেলিভারি,Barisal,motorcycle
A one motors,,01318-351261,Barisal,motorcycle
হোন্ডা মটরস,,ডেলিভারি  যখন ম্যাপ সরবে তখন ফলাফলগুলি আপডেট করুন  পৃষ্ঠার সবচেয়ে উপরে ফিরে যান  সাইড প্যানেল আড়াল করুন,Barisal,motorcycle showroom
হোন্ডা মোটরসাইকেল শোরুম - ম্যাক্স মোটরস,,ডেলিভারি,Barisal,motorcycle showroom
SDL Motors,,01789-864985    ডেলিভারি,Barisal,motorcycle showroom
হোন্ডা মোটরসাইকেল শোরুম - ম্যাক্স প্লাস,,01318-305639    ডেলিভারি,Barisal,motorcycle showroom
Off-Road Rush,,ডেলিভারি  যখন ম্যাপ সরবে তখন ফলাফলগুলি আপডেট করুন  পৃষ্ঠার সবচেয়ে উপরে ফিরে যান  সাইড প্যানেল আড়াল করুন,Barisal,bike repair
Off-Road Rush,,"P958+W9F, Rd No 3  দিকনির্দেশ",Barisal,bike repair
সহিদ পার্টস ষ্টোর (বরিশাল),,01730-918055  দিকনির্দেশ,Barisal,bike repair
ইরান সাইকেল স্টোর,,01798-475024  ওয়েবসাইট  দিকনির্দেশ,Barisal,bike repair
আবুল সাইকেল এন্ড অটো স্টোর(বরিশাল),,01711-358981  ওয়েবসাইট  দিকনির্দেশ,Barisal,bike repair
তালুকদার মটরস,,"P98C+9C2, সেকশন রোড  দিকনির্দেশ",Barisal,bike repair
রাকিব সাইকেল (বরিশাল),,01734-744842  ওয়েবসাইট  দিকনির্দেশ,Barisal,bike repair
চরবাড়িয়া সাইকেল(বরিশাল),,01711-312383  ওয়েবসাইট  দিকনির্দেশ,Barisal,bike repair
সালাম সাইকেল স্টোর,,ডেলিভারি,Barisal,bike repair
Hero sales service spare,,01799-664451  দিকনির্দেশ  যখন ম্যাপ সরবে তখন ফলাফলগুলি আপডেট করুন  পৃষ্ঠার সবচেয়ে উপরে ফিরে যান  সাইড প্যানেল আড়াল করুন,Barisal,motorcycle service
Hero sales service spare,,"M9R4+Q2G, সি অ্যান্ড বি রোড শীঘ্রই বন্ধ হবে  ⋅ ১২:০০ AM ⋅ সোম ৯:৩০ PM-এ খুলবে  দিকনির্দেশ",Barisal,motorcycle service
রাইছা ডেন্টিং ওয়ার্কসপ,,01778-459915  দিকনির্দেশ,Barisal,motorcycle service
Bismillah auto digital servicing centre,,"M9P8+56M, Bandh Road  দিকনির্দেশ",Barisal,motorcycle service
"হোন্ডা মোটরসাইকেল সার্ভিস সেন্টার, আমতলা মোর,বরিশা.",,01318-305631  দিকনির্দেশ,Barisal,motorcycle service
বরিশাল সার্ভিস সেন্টার,,01733-415123  দিকনির্দেশ,Barisal,motorcycle service
বাইকার্স বোম্ব বরিশাল,,01974-705511  ওয়েবসাইট  দিকনির্দেশ,Barisal,motorcycle service
Gear Up Barishal,,01776-036859  দিকনির্দেশ,Barisal,motorcycle service
পলাশ অটো সার্ভিস সেন্টার,,01799-664451  দিকনির্দেশ,Barisal,motorcycle service
নিওন অটো (ইয়ামাহা মোটরসাইকেল),,"P6CV+682, আর.কে. রোড 01834-756892    ডেলিভারি  যখন ম্যাপ সরবে তখন ফলাফলগুলি আপডেট করুন  পৃষ্ঠার সবচেয়ে উপরে ফিরে যান  সাইড প্যানেল আড়াল করুন",Rangpur,motorcycle
নিওন অটো (ইয়ামাহা মোটরসাইকেল),,ডেলিভারি,Rangpur,motorcycle
বাইক জোন,,ডেলিভারি,Rangpur,motorcycle
বাইকার ম্যান,,ডেলিভারি,Rangpur,motorcycle
টিভিএস অটো বাংলাদেশ লিমিটেড,,ডেলিভারি,Rangpur,motorcycle
হোন্ডা জনে,,ডেলিভারি,Rangpur,motorcycle
দি মটো সিটি,,"P6CV+682, আর.কে. রোড 01834-756892    ডেলিভারি",Rangpur,motorcycle
নিওন অটো (ইয়ামাহা মোটরসাইকেল),,ডেলিভারি  যখন ম্যাপ সরবে তখন ফলাফলগুলি আপডেট করুন  পৃষ্ঠার সবচেয়ে উপরে ফিরে যান  সাইড প্যানেল আড়াল করুন,Rangpur,motorcycle showroom
ক্লাসিক মটরস (ইয়ামাহা শোরুম) রংপুর।,,ডেলিভারি,Rangpur,motorcycle showroom
Arifin Motors (Bajaj Motorcycle),,ডেলিভারি,Rangpur,motorcycle showroom
সুজুকি সার্ভিস ক্যাফে - মমতাজ মোটরস- রংপুর,,Q69X+FPV ২৪ ঘণ্টা খোলা  দিকনির্দেশ  যখন ম্যাপ সরবে তখন ফলাফলগুলি আপডেট করুন  পৃষ্ঠার সবচেয়ে উপরে ফিরে যান  সাইড প্যানেল আড়াল করুন,Rangpur,bike repair
সুজুকি সার্ভিস ক্যাফে - মমতাজ মোটরস- রংপুর,,01748-980999  দিকনির্দেশ,Rangpur,bike repair
"মেকানিক্স মোটর বাইক সার্ভিসিং সেন্টের, রংপুর",,01332-049004  দিকনির্দেশ,Rangpur,bike repair
সজীব মটর সাইকেল সার্ভিসিং সেন্টার,,01744-872839  দিকনির্দেশ,Rangpur,bike repair
বাইক পুরলের রংপুর,,"P7G3+GX8, College Rd  দিকনির্দেশ",Rangpur,bike repair
মাহিন মটরসাইকেল রিপিয়ারিং ওয়ার্কসপ,,01719-710277  দিকনির্দেশ,Rangpur,bike repair
রংপুর মটরস্ ওয়ার্কশপ,,01755-260731  দিকনির্দেশ,Rangpur,bike repair
মোটক্সপার্ট মোটরসাইকেল সার্ভিস সেন্টার & পার্টস শপ,,01751-003038  দিকনির্দেশ,Rangpur,bike repair
ফিজের বাইক সার্ভিসিং সেন্টের,,Q69X+FPV ২৪ ঘণ্টা খোলা  দিকনির্দেশ,Rangpur,bike repair
মোটক্সপার্ট মোটরসাইকেল সার্ভিস সেন্টার & পার্টস শপ,,01722-304516  দিকনির্দেশ  যখন ম্যাপ সরবে তখন ফলাফলগুলি আপডেট করুন  পৃষ্ঠার সবচেয়ে উপরে ফিরে যান  সাইড প্যানেল আড়াল করুন,Rangpur,motorcycle service
খাদেমুল মোটরসাইকেল ওয়ার্কসপ,,01728-200809  দিকনির্দেশ,Rangpur,motorcycle service
রাজু মোটরসাইকেল সার্ভিস সেন্টের,,"P7J3+CR8, N517 01751-371123  দিকনির্দেশ",Rangpur,motorcycle service
নাটু মটর সাইকেল সার্ভিসিং সেন্টার,,01722-304516  দিকনির্দেশ,Rangpur,motorcycle service
হোন্ডা শোরুম গাজিপুর,,01968-841384    ডেলিভারি  যখন ম্যাপ সরবে তখন ফলাফলগুলি আপডেট করুন  পৃষ্ঠার সবচেয়ে উপরে ফিরে যান  সাইড প্যানেল আড়াল করুন,Gazipur,motorcycle
হোন্ডা শোরুম গাজিপুর,,ডেলিভারি,Gazipur,motorcycle
"অনিকা মোটরস, গাজিপুর",,ডেলিভারি,Gazipur,motorcycle
"ইয়ামাহা 3এস সেন্টার, গাজীপুর",,ডেলিভারি,Gazipur,motorcycle
এইচ পাওয়ার মটরস,,ডেলিভারি,Gazipur,motorcycle
বাজাজ বাজার,,ডেলিভারি,Gazipur,motorcycle
Revoo bike showroom Gazipur,,01968-841384    ডেলিভারি,Gazipur,motorcycle
হোন্ডা শোরুম গাজিপুর,,ডেলিভারি  যখন ম্যাপ সরবে তখন ফলাফলগুলি আপডেট করুন  পৃষ্ঠার সবচেয়ে উপরে ফিরে যান  সাইড প্যানেল আড়াল করুন,Gazipur,motorcycle showroom
মটো ক্রেজ হোন্ডা অফিসিয়াল শোরুম,,ডেলিভারি,Gazipur,motorcycle showroom
হিরো মোটোকর্প অ্যাল আরাফ মোটরস - মোটরসাইকেল শোরুম,,ডেলিভারি,Gazipur,motorcycle showroom
M/S Salem Cycle Store,,01716-775438  ওয়েবসাইট  দিকনির্দেশ  যখন ম্যাপ সরবে তখন ফলাফলগুলি আপডেট করুন  পৃষ্ঠার সবচেয়ে উপরে ফিরে যান  সাইড প্যানেল আড়াল করুন,Gazipur,bike repair
M/S Salem Cycle Store,,01717-449518  ওয়েবসাইট  দিকনির্দেশ    অনসাইট পরিষেবা,Gazipur,bike repair
মাসুদ বাইক সার্ভিস সেন্টার,,1704 Bot Tola Rd  দিকনির্দেশ,Gazipur,bike repair
এস এস বাইক অ্যাকসেসরিজ,,01957-993722  দিকনির্দেশ    ডেলিভারি,Gazipur,bike repair
গাজীপুর মটরস পার্টস পয়েন্ট,,01929-368895  দিকনির্দেশ,Gazipur,bike repair
বাইক সিটি গাজিপুর,,X9VG+7WC Chowrasta  দিকনির্দেশ,Gazipur,bike repair
ট্রাস্ট ইজি বাইক সার্ভিস পয়েন্ট,,ডেলিভারি,Gazipur,bike repair
ভাই ভাই মটস্,,X9MJ+RFQ 01784-978498  দিকনির্দেশ,Gazipur,bike repair
এস এম সাইকেল (গাজীপুর),,01716-775438  ওয়েবসাইট  দিকনির্দেশ,Gazipur,bike repair
মায়ের দোয়া মটরস,,01711-040900  দিকনির্দেশ  যখন ম্যাপ সরবে তখন ফলাফলগুলি আপডেট করুন  পৃষ্ঠার সবচেয়ে উপরে ফিরে যান  সাইড প্যানেল আড়াল করুন,Gazipur,motorcycle service
মায়ের দোয়া মটরস,,01676-001868  দিকনির্দেশ,Gazipur,motorcycle service
মৃধা মোটর সার্ভিস সেন্টের গাজীপুর ১৭২০,,01642-307329  দিকনির্দেশ,Gazipur,motorcycle service
Akota Motors Gazipur,,01611-979396  দিকনির্দেশ,Gazipur,motorcycle service
"YAMAHA SERVICE CENTER, GAZIPUR",,01709-633185  দিকনির্দেশ,Gazipur,motorcycle service
গাজিপুরা মোটরসাইকেল সার্ভিসিং সেন্টের,,01926-899752  দিকনির্দেশ,Gazipur,motorcycle service
"ইউনিটি মোটরস (পার্ট, অ্যাকসেসরিজ & সার্ভিস).",,01711-040900  দিকনির্দেশ,Gazipur,motorcycle service
হোন্ডা নারায়ণগঞ্জ (ইসিনা মোটরস),,দোকান থেকে অর্ডার পিকআপ করার ব্যবস্থা  যখন ম্যাপ সরবে তখন ফলাফলগুলি আপডেট করুন  পৃষ্ঠার সবচেয়ে উপরে ফিরে যান  সাইড প্যানেল আড়াল করুন,Narayanganj,motorcycle
হোন্ডা নারায়ণগঞ্জ (ইসিনা মোটরস),,ডেলিভারি,Narayanganj,motorcycle
Brothers Motors- Yamaha Showroom,,ডেলিভারি,Narayanganj,motorcycle
"রানার মোটরসাইকেল শোরুম, নারায়নগঞ্জ",,ডেলিভারি,Narayanganj,motorcycle
হোলি মোটরস সুজুকি বাইক নারায়নগঞ্জ,,01975-958181    ডেলিভারি,Narayanganj,motorcycle
সুজুকি নারায়নগঞ্জ (বাইকের ব্রাদার্স),,01922-446634    ক্রেতারা এটি দেখেছেন:  motorcycles,Narayanganj,motorcycle
U-Turn Riders - CFMOTO Narayanganj,,দোকান থেকে অর্ডার পিকআপ করার ব্যবস্থা,Narayanganj,motorcycle
Brothers Motors- Yamaha Showroom,,"QHPC+9G8, Bhulta Hwy 01762-491631    ডেলিভারি  যখন ম্যাপ সরবে তখন ফলাফলগুলি আপডেট করুন  পৃষ্ঠার সবচেয়ে উপরে ফিরে যান  সাইড প্যানেল আড়াল করুন",Narayanganj,motorcycle showroom
"ইয়ামাহা শোরুম -বেঙ্গল মোটরস(ভুলতা, রূপগঞ্জ, নারায়ণগঞ্জ)",,ডেলিভারি,Narayanganj,motorcycle showroom
জিপিএক্স শোরুম নারায়ণগঞ্জ -শরীফ মোটরস,,"QHPC+9G8, Bhulta Hwy 01762-491631    ডেলিভারি",Narayanganj,motorcycle showroom
থে বাইক স্টেশন,,Unnamed Road 01959-404262  দিকনির্দেশ  যখন ম্যাপ সরবে তখন ফলাফলগুলি আপডেট করুন  পৃষ্ঠার সবচেয়ে উপরে ফিরে যান  সাইড প্যানেল আড়াল করুন,Narayanganj,bike repair
থে বাইক স্টেশন,,01919-223543  দিকনির্দেশ,Narayanganj,bike repair
THE BIKE STATION,,01676-558022  ওয়েবসাইট  দিকনির্দেশ,Narayanganj,bike repair
"এস, এ বাইক সার্ভিস ও যন্ত্রাংশ",,01403-527733  দিকনির্দেশ,Narayanganj,bike repair
সাইকেল রিপেয়ার শপ,,01777-123454  দিকনির্দেশ,Narayanganj,bike repair
বাইক স্টেশন বিডি,,01627-711896  দিকনির্দেশ,Narayanganj,bike repair
আরএস বাইক সার্ভিসিং & ওয়াশ,,01923-590009  দিকনির্দেশ,Narayanganj,bike repair
মত গিয়ার বাইক সলিউশনস অ্যান্ড পার্টস.,,01931-933482  দিকনির্দেশ,Narayanganj,bike repair
সাইকেল সলিউশন,,Unnamed Road 01959-404262  দিকনির্দেশ,Narayanganj,bike repair
10 পাইপ জলকুড়ি নারায়ণগঞ্জ,,01676-558022  ওয়েবসাইট  দিকনির্দেশ  যখন ম্যাপ সরবে তখন ফলাফলগুলি আপডেট করুন  পৃষ্ঠার সবচেয়ে উপরে ফিরে যান  সাইড প্যানেল আড়াল করুন,Narayanganj,motorcycle service
10 পাইপ জলকুড়ি নারায়ণগঞ্জ,,JFVQ+58G ২৪ ঘণ্টা খোলা  দিকনির্দেশ,Narayanganj,motorcycle service
3 Bhai Electric & Mechanic Works,,"Haji 1, হাজী পান্দে আলী রোড 01717-975474  দিকনির্দেশ",Narayanganj,motorcycle service
Motodot services point,,01622-800927  দিকনির্দেশ,Narayanganj,motorcycle service
The Biker's Haven,,01406-024508  দিকনির্দেশ,Narayanganj,motorcycle service
"TVS Authorized Service Center, Narayanganj",,01334-916683  দিকনির্দেশ,Narayanganj,motorcycle service
Ride N Shine,,JFQV+VWG  দিকনির্দেশ,Narayanganj,motorcycle service
তাফিদা মটরস,,"Delpara, North 01923-901246  দিকনির্দেশ",Narayanganj,motorcycle service
