name,phone,address,district,category
কোহিনুর মোটরস (হওযু অ্যান্ড রোডমাস্টার),,ডেলিভারি  সাইড প্যানেল আড়াল করুন,Dhaka,motorcycle
কোহিনুর মোটরস (হওযু অ্যান্ড রোডমাস্টার),,ডেলিভারি,Dhaka,motorcycle
সিটি হোন্ডা,,ডেলিভারি,Dhaka,motorcycle
হোন্ডা হাট | অথোরাইজড 4এস ডিলের ওফ বাংলাদেশ হোন্ডা প্রাইভেট লিমিটেড(বিএইচএল),,ডেলিভারি,Dhaka,motorcycle
সাওয়ারী বাইক এবং গিয়ার,,ডেলিভারি,Dhaka,motorcycle
"ইয়ামাহা শোরুম - ক্রিসেন্ট এন্টারপ্রাইজ, এসিআই মটরস লিমিটেড",,ডেলিভারি,Dhaka,motorcycle
"নিলয় হিরো, তেজগাঁও",,ডেলিভারি  সাইড প্যানেল আড়াল করুন,Dhaka,motorcycle showroom
"নিলয় হিরো, তেজগাঁও",,ডেলিভারি,Dhaka,motorcycle showroom
সুজুকি উইংস বিডি লিমিটেড,,ডেলিভারি,Dhaka,motorcycle showroom
নিশো মোটরস - মোহাম্মদপুর,,ডেলিভারি,Dhaka,motorcycle showroom
"উত্তরা মটরস লিমিটেড, বাজাজ পয়েন্ট",,ডেলিভারি,Dhaka,motorcycle showroom
বাইক নেশন বিডি,,01619-502020  ফোন  দিকনির্দেশ  সাইড প্যানেল আড়াল করুন,Dhaka,bike repair
বাইক নেশন বিডি,,01776-285457  ফোন  দিকনির্দেশ    অনসাইট পরিষেবা,Dhaka,bike repair
মটোমেকস বাংলাদেশ - বেস্ট বাইক সার্ভিস সেন্টের ইন ঢাকা,,01989-892323  ফোন  দিকনির্দেশ    অনসাইট পরিষেবা,Dhaka,bike repair
বাইক হ্যাকস বিডি,,01912-474248  ফোন  দিকনির্দেশ,Dhaka,bike repair
বাইক শপ বিডি,,ডেলিভারি,Dhaka,bike repair
সাইকেল ওয়ার্কস বিডি,,01670-475126  ফোন  দিকনির্দেশ,Dhaka,bike repair
ইমন পরিসেবা কেন্দ্র,,01711-585951  ফোন  দিকনির্দেশ,Dhaka,bike repair
গিয়ার আপ মোটরবাইক সার্ভিস পয়েন্ট,,"Signal, Near বিজয় সরণী বন্ধ হয়ে গেছে  ⋅ সোম ৮:০০ AM-এ খুলবে  দিকনির্দেশ",Dhaka,bike repair
ঢাকা বাইক হসপিটাল,,01745-745728  ফোন  দিকনির্দেশ,Dhaka,bike repair
শাহীন সাইকেল সার্ভিস সেন্টার,,01911-263304  ফোন  দিকনির্দেশ,Dhaka,bike repair
জিএসকে বাইক সার্ভিস সেন্টের,,"Q9V8+44C, Kamal Soroni Rd বন্ধ হয়ে গেছে  ⋅ মঙ্গল ৯:০০ AM-এ খুলবে  দিকনির্দেশ",Dhaka,bike repair
ইস্ট এন্ড মোটরস মোটরসাইকেল অ্যাকসেসরিজ অ্যান্ড রিপেয়ার শপ,,01977-634608  ফোন  দিকনির্দেশ,Dhaka,bike repair
স্কোপ অটোমোবাইলস | মোটরসাইকেল সার্ভিস সেন্টের,,01619-502020  ফোন  দিকনির্দেশ,Dhaka,bike repair
গিয়ার আপ মোটরবাইক সার্ভিস পয়েন্ট,,01928-982674  ফোন  দিকনির্দেশ  সাইড প্যানেল আড়াল করুন,Dhaka,motorcycle service
Fast Gear Motorbike service center | ফাস্ট গিয়ার মটরবাইক সার্ভিস সেন্টার,,01633-742800  ফোন  দিকনির্দেশ,Dhaka,motorcycle service
রাইডার্স প্ল্যানেট. মোটরসাইকেল সার্ভিসিং সেন্টের,,01712-086160  ফোন  দিকনির্দেশ,Dhaka,motorcycle service
স্প্যানার,,01970-139186  ফোন  দিকনির্দেশ    অনসাইট পরিষেবা,Dhaka,motorcycle service
"স্পর্ক - মোটরসাইকেল সার্ভিস, স্পরেস & অ্যাকসেসরিজ",,01786-469061  ফোন  দিকনির্দেশ,Dhaka,motorcycle service
উত্তরা মোটরস সার্ভিস সেন্টের,,01322-846232  ফোন  দিকনির্দেশ    অনসাইট পরিষেবা,Dhaka,motorcycle service
মোটো জোন,,01977-525150  ফোন  দিকনির্দেশ,Dhaka,motorcycle service
মটোসেড সার্ভিস স্টেশন,,01601-990844  ফোন  দিকনির্দেশ,Dhaka,motorcycle service
এন.এস অটো,,01928-982674  ফোন  দিকনির্দেশ,Dhaka,motorcycle service
